73P-BX/Schwassmann-Wachmann,e,11.3426,69.3804,199.2051,3.118741,0.1789514,0.69233183,109.1388,04/28.0/2024,2000,g 17.5,4.0
# From MPEC 2022-R15
73P-BY/Schwassmann-Wachmann,e,11.1568,199.2327,69.7602,3.029256,0.1869390,0.68341238,114.2739,04/28.0/2024,2000,g 17.4,4.0
# From MPEC 2024-EF7
74P/Smirnova-Chernykh,e,6.4735,53.7032,119.6895,4.859323,0.0920111,0.03823419,236.2472,04/28.0/2024,2000,g  5.0,6.0
# From CCO 7
75D/Kohoutek,e,5.9255,269.5532,175.5520,3.537391,0.1481424,0.49932991,169.9008,04/28.0/2024,2000,g  9.5,6.0
# From MPEC 2022-K19
76P/West-Kohoutek-Ikemura,e,30.4873,84.1107,359.9556,3.469006,0.1525445,0.53929370,250.8460,04/28.0/2024,2000,g  8.0,12.0
# From MPEC 2023-TM6
77P/Longmore,e,24.3186,14.7620,196.6806,3.622108,0.1429756,0.35167075,55.9117,04/28.0/2024,2000,g  7.0,8.0
# From MPEC 2021-O56
78P/Gehrels,e,6.2568,210.5309,192.6908,3.735424,0.1365194,0.46318460,252.4280,04/28.0/2024,2000,g  5.5,8.0
# From MPC 94675
79P/du Toit-Hartley,e,3.1489,281.7718,280.5238,2.943713,0.1951466,0.61920005,41.1079,04/28.0/2024,2000,g 16.0,4.0
# From MPEC 2023-RF3
80P/Peters-Hartley,e,29.9239,259.7820,339.2784,4.022773,0.1221563,0.59818672,61.8418,04/28.0/2024,2000,g  9.0,8.0
# From MPEC 2024-F91
81P/Wild,e,3.2369,136.0936,41.5863,3.452723,0.1536248,0.53728042,76.7237,04/28.0/2024,2000,g  7.0,6.0
# From MPC133426
82P/Gehrels,e,1.1292,239.2332,226.4137,4.132246,0.1173342,0.12247151,250.6442,04/28.0/2024,2000,g 15.0,4.0
# From NK 932
83D/Russell,e,17.8264,226.3051,334.4289,3.843937,0.1307795,0.44133068,140.1466,04/28.0/2024,2000,g  9.0,4.0
# From MPEC 2020-FB5
84P/Giclas,e,7.5514,108.1588,281.6530,3.550091,0.1473482,0.51601824,209.6824,04/28.0/2024,2000,g  9.5,8.0
# From unp
85D/Boethin,e,4.1742,65.2842,333.0737,5.044297,0.0869968,0.77628131,118.9824,04/28.0/2024,2000,g  6.5,8.0
# From MPEC 2022-YB4
86P/Wild,e,15.5199,72.1059,180.6015,3.624686,0.1428231,0.37008309,115.6017,04/28.0/2024,2000,g 11.0,6.0
# From MPEC 2020-SI8
87P/Bus,e,2.7332,186.8324,51.1787,4.288497,0.1109804,0.23662426,162.9799,04/28.0/2024,2000,g  7.2,10.0
# From MPEC 2024-C04
88P/Howell,e,4.3820,56.6664,235.9186,3.107272,0.1799431,0.56321211,235.8600,04/28.0/2024,2000,g 11.0,6.0
# From MPEC 2024-H50
89P/Russell,e,12.0720,41.3454,250.4016,3.751517,0.1356419,0.40774774,4.3938,04/28.0/2024,2000,g 11.5,6.0
# From MPEC 2022-K19
90P/Gehrels,e,9.6475,13.2134,29.1173,6.052154,0.0661971,0.51111008,165.5218,04/28.0/2024,2000,g  8.5,6.0
# From MPEC 2023-VM5
91P/Russell,e,16.3742,242.8690,359.4449,3.949521,0.1255705,0.31639283,162.7177,04/28.0/2024,2000,g  7.5,6.0
# From MPEC 2014-J58
92P/Sanguin,e,19.4935,181.3766,163.8012,5.342903,0.0798065,0.66048891,266.3923,04/28.0/2024,2000,g 12.0,6.0
# From NK 2707
93P/Lovas,e,12.2053,339.5788,74.9529,4.377008,0.1076312,0.61400634,280.9109,04/28.0/2024,2000,g  9.0,4.0
# From MPEC 2024-F91
94P/Russell,e,6.1879,70.8519,92.4003,3.510557,0.1498442,0.36569301,51.3901,04/28.0/2024,2000,g  9.0,6.0
# From MPC 75717
95P/Chiron,e,6.9227,209.1989,339.3977,13.70953,0.0194165,0.37690616,201.5303,04/28.0/2024,2000,g  6.5,2.0
# From MPEC 2023-N01
96P/Machholz,e,57.5499,93.9557,14.7410,3.030848,0.1867918,0.96163217,84.5953,04/28.0/2024,2000,g 13.0,4.8
# From MPC106348
96P-B/Machholz,e,57.5038,14.7123,93.9552,3.030096,0.1868613,0.96164347,84.6288,04/28.0/2024,2000,g 13.0,4.8
# From MPC103849
96P-C/Machholz,e,58.5311,94.3495,15.5380,3.011920,0.1885553,0.95889850,359.8715,07/14.0/2012,2000,g  9.0,4.0
# From MPEC 2024-GJ3
97P/Metcalf-Brewington,e,17.9482,184.0803,230.1094,4.766681,0.0947065,0.46028707,75.9545,04/28.0/2024,2000,g  5.5,6.0
# From MPEC 2021-W31
98P/Takamizawa,e,10.5740,114.6266,157.7264,3.789463,0.1336096,0.56281407,161.6632,04/28.0/2024,2000,g  9.0,8.0
# From MPEC 2024-A43
99P/Kowal,e,4.3393,28.0919,174.6580,6.096777,0.0654717,0.22852594,49.0371,04/28.0/2024,2000,g  4.5,6.0
# From MPEC 2023-OA6
100P/Hartley,e,25.5673,37.6856,181.9658,3.430598,0.1551134,0.41162008,97.1401,04/28.0/2024,2000,g  9.0,8.0
# From MPEC 2024-EF7
101P/Chernykh,e,5.0491,116.1584,277.8919,5.813700,0.0703113,0.59621952,110.1434,04/28.0/2024,2000,g 10.0,4.8
# From MPC105241
101P-B/Chernykh,e,5.0499,278.5442,115.5087,5.829193,0.0700312,0.59643017,108.4597,04/28.0/2024,2000,g  9.0,4.0
# From MPEC 2022-C56
102P/Shoemaker,e,25.8696,339.4102,20.6658,3.818556,0.1320856,0.45658598,157.3911,04/28.0/2024,2000,g  6.5,8.0
# From MPEC 2024-H50
103P/Hartley,e,13.6107,219.7490,181.3021,3.474435,0.1521871,0.69372270,30.2081,04/28.0/2024,2000,g  8.5,8.0
# From MPEC 2023-G31
104P/Kowal,e,5.7030,207.2073,227.2592,3.208678,0.1714806,0.66588496,143.5358,04/28.0/2024,2000,g 16.0,4.0
# From MPEC 2024-F34
105P/SingerBrewster,e,9.1682,192.3976,46.3592,3.471562,0.1523760,0.40892914,318.8840,04/28.0/2024,2000,g 11.5,6.0
# From MPEC 2023-UR6
106P/Schuster,e,19.5404,48.8622,353.7716,3.767127,0.1347996,0.59389589,132.4969,04/28.0/2024,2000,g 14.0,4.8
# From MPEC 2015-M77
107P/Wilson-Harrington,e,2.7986,266.7464,95.5008,2.625305,0.2317045,0.63137967,141.9015,04/28.0/2024,2000,g  9.0,4.0
# From MPEC 2022-P82
108P/Ciffreo,e,11.4361,50.2978,354.5031,3.742605,0.1361267,0.55605566,130.7606,04/28.0/2024,2000,g  8.0,12.0
# From  105, 420
109P/Swift-Tuttle,e,113.4335,139.4669,153.2174,26.21252,0.0073441,0.96259841,84.1108,04/28.0/2024,2000,g  4.0,6.0
# From MPEC 2023-KD6
110P/Hartley,e,11.7078,287.4905,167.5038,3.603893,0.1440610,0.31902816,132.8560,04/28.0/2024,2000,g  1.0,12.0
# From MPC 75718
111P/Helin-Roman-Crockett,e,4.2259,89.8128,1.2232,4.152221,0.1164886,0.10713501,121.7292,04/28.0/2024,2000,g  5.0,8.0
# From MPEC 2021-S45
112P/Urata-Niijima,e,24.2093,31.8333,21.5028,3.523526,0.1490177,0.59085514,229.3671,04/28.0/2024,2000,g 14.0,6.0
# From MPEC 2024-GJ3
113P/Spitaler,e,5.2877,306.6538,115.6417,3.694401,0.1387995,0.41994094,96.6425,04/28.0/2024,2000,g 13.5,4.0
# From MPEC 2023-A50
114P/Wiseman-Skiff,e,18.3013,271.0243,172.7680,3.541541,0.1478821,0.55595403,231.3526,04/28.0/2024,2000,g 11.5,6.0
# From MPEC 2023-J29
115P/Maury,e,11.6770,176.0138,120.9639,4.272107,0.1116197,0.51754051,152.9117,04/28.0/2024,2000,g 10.5,6.0
# From MPEC 2023-VM5
116P/Wild,e,3.6036,20.9697,173.2028,3.487524,0.1513311,0.37032619,98.5710,04/28.0/2024,2000,g  2.5,10.0
# From MPEC 2024-F91
117P/Helin-Roman-Alu,e,8.7055,58.8141,223.6541,4.096060,0.1188925,0.25597323,78.1375,04/28.0/2024,2000,g  2.5,8.0
# From MPEC 2024-H50
118P/Shoemaker-Levy,e,10.0902,142.0826,314.8875,3.348272,0.1608693,0.45372586,83.7369,04/28.0/2024,2000,g 12.0,4.0
# From MPEC 2024-GJ3
119P/Parker-Hartley,e,7.3923,104.5568,322.1823,3.807583,0.1326570,0.38837485,82.8695,04/28.0/2024,2000,g  3.5,8.0
# From MPEC 2022-CN4
120P/Mueller,e,8.4864,358.7226,36.7186,3.968073,0.1246908,0.37468472,135.4369,04/28.0/2024,2000,g 12.0,4.0
# From MPEC 2024-GJ3
121P/Shoemaker-Holt,e,20.1627,94.1113,11.7598,4.585971,0.1003592,0.18651555,30.4687,04/28.0/2024,2000,g  6.5,8.0
# From MPC 75718
122P/de Vico,e,85.9548,79.7287,12.9928,17.62837,0.0133164,0.96247173,139.1389,04/28.0/2024,2000,g  7.5,5.2
# From MPEC 2021-F20
123P/West-Hartley,e,15.2802,45.9017,104.0149,3.881680,0.1288767,0.44430231,246.8951,04/28.0/2024,2000,g 12.2,4.0
# From MPEC 2023-T65
124P/Mrkos,e,31.4444,0.0615,185.1743,3.373509,0.1590674,0.48673343,234.8483,04/28.0/2024,2000,g 13.5,2.8
# From MPEC 2024-H50
125P/Spacewatch,e,9.9848,153.1499,87.1381,3.129226,0.1780528,0.51211996,9.2068,04/28.0/2024,2000,g 13.0,6.0
# From MPEC 2024-F91
126P/IRAS,e,45.8707,357.8603,356.5787,5.633226,0.0737171,0.69638557,21.9476,04/28.0/2024,2000,g  6.0,8.0
# From MPEC 2024-AF0
127P/Holt-Olmstead,e,14.3003,13.6090,6.3114,3.452932,0.1536109,0.35924842,96.2525,04/28.0/2024,2000,g 11.0,6.0
# From MPC 89014
128P/Shoemaker-Holt,e,4.3703,214.3392,210.3681,4.485210,0.1037600,0.32238935,276.0212,04/28.0/2024,2000,g  8.5,4.0
# From MPEC 2024-GJ3
129P/Shoemaker-Levy,e,3.4422,184.8608,307.5684,4.291839,0.1108508,0.08561511,56.9690,04/28.0/2024,2000,g 11.0,4.0
# From MPEC 2024-GJ3
130P/McNaught-Hughes,e,6.0636,70.1786,246.1287,3.381191,0.1585256,0.46084529,2.0789,04/28.0/2024,2000,g 10.0,6.0
# From MPC102101
131P/Mueller,e,7.3606,214.1776,179.1274,3.676862,0.1397938,0.34492172,267.9685,04/28.0/2024,2000,g 11.0,4.0
# From MPEC 2024-BE0
132P/Helin-Roman-Alu,e,5.3811,173.9941,216.4589,3.890637,0.1284319,0.56454446,115.1720,04/28.0/2024,2000,g 11.0,6.0
# From MPC 94676
133P/Elst-Pizarro,e,1.3897,160.1017,131.9175,3.164358,0.1750958,0.15600159,357.8408,04/28.0/2024,2000,g 15.4,2.0
# From MPC 89012
134P/Kowal-Vavrova,e,4.3347,202.0101,18.7617,6.267803,0.0628103,0.58514939,229.0618,04/28.0/2024,2000,g 11.5,4.0
# From MPEC 2024-C04
135P/Shoemaker-Levy,e,6.0639,213.0191,22.4032,3.800631,0.1330211,0.29415419,99.9962,04/28.0/2024,2000,g  7.0,8.0
# From MPEC 2022-K19
136P/Mueller,e,9.4280,137.4964,225.1645,4.186057,0.1150791,0.29323604,331.1991,04/28.0/2024,2000,g 11.0,4.0
# From MPEC 2023-J29
137P/Shoemaker-Levy,e,4.8605,232.9245,141.2201,4.522448,0.1024811,0.57353812,200.9200,04/28.0/2024,2000,g 11.0,4.0
# From MPEC 2016-U66
138P/Shoemaker-Levy,e,10.0963,309.2874,95.6339,3.618785,0.1431726,0.53162961,260.4704,04/28.0/2024,2000,g 15.0,6.0
# From MPEC 2020-HN5
139P/Vaisala-Oterma,e,2.3374,242.1818,165.8559,4.515895,0.1027042,0.24835069,238.8087,04/28.0/2024,2000,g  9.5,4.0
# From MPEC 2015-E14
140P/Bowell-Skiff,e,3.7734,343.3463,172.3221,6.406566,0.0607808,0.69602540,194.6427,04/28.0/2024,2000,g 11.5,6.0
# From MPEC 2022-K19
141P/Machholz,e,13.9557,241.8094,153.6045,3.057503,0.1843545,0.73607528,226.3701,04/28.0/2024,2000,g 12.0,12.0
# From MPEC 2015-KD9
141P-A/Machholz,e,13.9430,153.5472,241.8802,3.057635,0.1843426,0.73607376,226.3230,04/28.0/2024,2000,g 12.0,12.0
# From MPC 24216
141P-B/Machholz,e,13.9870,153.6229,241.7694,3.056022,0.1844885,0.73583191,227.6888,04/28.0/2024,2000,g  9.0,4.0
# From MPC 37026
141P-D/Machholz,e,13.8351,153.2742,242.1278,3.066095,0.1835801,0.73702777,222.2440,04/28.0/2024,2000,g  9.0,4.0
# From MPEC 2015-R12
